start=new Date('2022-07-13T00:00:00.000Z').valueOf();
sats=[{"OBJECT_ID":"2022-053Q","NORAD_CAT_ID":"52670","BSTAR":"-0.03715900000000","TIME_SYSTEM":"UTC","RCS_SIZE":"LARGE","REF_FRAME":"TEME","MEAN_MOTION_DDOT":"0.0000000000000","ARG_OF_PERICENTER":"42.9908","SITE":"AFETR","PERIOD":"94.832","MEAN_ANOMALY":"126.2343","COUNTRY_CODE":"US","TLE_LINE2":"2 52670  53.2175  30.8356 0001866  42.9908 126.2343 15.18469594  8958","SEMIMAJOR_AXIS":"6888.602","CLASSIFICATION_TYPE":"U","LAUNCH_DATE":"2022-05-18","RA_OF_ASC_NODE":"30.8356","ECCENTRICITY":"0.00018660","MEAN_MOTION_DOT":"-0.00722397","MEAN_MOTION":"15.18469594","ELEMENT_SET_NO":"999","EPHEMERIS_TYPE":"0","TLE_LINE1":"1 52670U 22053Q   22193.91667824 -.00722397  00000-0 -37159-1 0  9990","OBJECT_TYPE":"PAYLOAD","EPOCH":"2022-07-12T22:00:00.999936","PERIAPSIS":"509.182","OBJECT_NAME":"STARLINK-4075","FILE":"3512303","MEAN_ELEMENT_THEORY":"SGP4","GP_ID":"207974366","APOAPSIS":"511.753","REV_AT_EPOCH":"895","DECAY_DATE":null,"CENTER_NAME":"EARTH","INCLINATION":"53.2175"},{"INCLINATION":"53.2176","CENTER_NAME":"EARTH","GP_ID":"208001819","APOAPSIS":"508.438","DECAY_DATE":null,"REV_AT_EPOCH":"130","MEAN_ELEMENT_THEORY":"SGP4","OBJECT_NAME":"STARLINK-4071","FILE":"3512432","MEAN_MOTION":"15.19505513","ELEMENT_SET_NO":"999","EPOCH":"2022-07-12T22:00:00.999936","OBJECT_TYPE":"PAYLOAD","TLE_LINE1":"1 52671U 22053R   22193.91667824 -.00721389  00000-0 -36003-1 0  9998","EPHEMERIS_TYPE":"0","PERIAPSIS":"506.234","SEMIMAJOR_AXIS":"6885.471","CLASSIFICATION_TYPE":"U","TLE_LINE2":"2 52671  53.2176  30.8500 0001600  54.6095 195.0598 15.19505513  1305","LAUNCH_DATE":"2022-05-18","RA_OF_ASC_NODE":"30.8500","MEAN_MOTION_DOT":"-0.00721389","ECCENTRICITY":"0.00016000","MEAN_MOTION_DDOT":"0.0000000000000","REF_FRAME":"TEME","PERIOD":"94.768","SITE":"AFETR","ARG_OF_PERICENTER":"54.6095","COUNTRY_CODE":"US","MEAN_ANOMALY":"195.0598","BSTAR":"-0.03600300000000","TIME_SYSTEM":"UTC","RCS_SIZE":"LARGE","NORAD_CAT_ID":"52671","OBJECT_ID":"2022-053R"},{"CENTER_NAME":"EARTH","INCLINATION":"53.2175","APOAPSIS":"510.411","REV_AT_EPOCH":"130","DECAY_DATE":null,"GP_ID":"208002077","FILE":"3512432","OBJECT_NAME":"STARLINK-4073","MEAN_ELEMENT_THEORY":"SGP4","TLE_LINE1":"1 52672U 22053S   22193.91667824 -.00721538  00000-0 -36639-1 0  9990","OBJECT_TYPE":"PAYLOAD","EPHEMERIS_TYPE":"0","EPOCH":"2022-07-12T22:00:00.999936","PERIAPSIS":"507.856","MEAN_MOTION":"15.18910779","ELEMENT_SET_NO":"999","RA_OF_ASC_NODE":"30.8419","ECCENTRICITY":"0.00018550","MEAN_MOTION_DOT":"-0.00721538","TLE_LINE2":"2 52672  53.2175  30.8419 0001855  43.9553 160.2301 15.18910779  1305","SEMIMAJOR_AXIS":"6887.268","CLASSIFICATION_TYPE":"U","LAUNCH_DATE":"2022-05-18","SITE":"AFETR","ARG_OF_PERICENTER":"43.9553","PERIOD":"94.805","MEAN_ANOMALY":"160.2301","COUNTRY_CODE":"US","MEAN_MOTION_DDOT":"0.0000000000000","REF_FRAME":"TEME","RCS_SIZE":"LARGE","BSTAR":"-0.03663900000000","TIME_SYSTEM":"UTC","OBJECT_ID":"2022-053S","NORAD_CAT_ID":"52672"},{"CENTER_NAME":"EARTH","INCLINATION":"53.2177","DECAY_DATE":null,"REV_AT_EPOCH":"130","APOAPSIS":"507.256","GP_ID":"208002329","MEAN_ELEMENT_THEORY":"SGP4","OBJECT_NAME":"STARLINK-3976","FILE":"3512432","PERIAPSIS":"505.019","EPOCH":"2022-07-12T22:00:00.999936","OBJECT_TYPE":"PAYLOAD","TLE_LINE1":"1 52673U 22053T   22193.91667824 -.00721884  00000-0 -35614-1 0  9997","EPHEMERIS_TYPE":"0","ELEMENT_SET_NO":"999","MEAN_MOTION":"15.19902265","MEAN_MOTION_DOT":"-0.00721884","ECCENTRICITY":"0.00016250","RA_OF_ASC_NODE":"30.8552","LAUNCH_DATE":"2022-05-18","SEMIMAJOR_AXIS":"6884.273","CLASSIFICATION_TYPE":"U","TLE_LINE2":"2 52673  53.2177  30.8552 0001625  50.2572 229.2724 15.19902265  1300","COUNTRY_CODE":"US","MEAN_ANOMALY":"229.2724","PERIOD":"94.743","ARG_OF_PERICENTER":"50.2572","SITE":"AFETR","MEAN_MOTION_DDOT":"0.0000000000000","REF_FRAME":"TEME","RCS_SIZE":"LARGE","TIME_SYSTEM":"UTC","BSTAR":"-0.03561400000000","NORAD_CAT_ID":"52673","OBJECT_ID":"2022-053T"},{"LAUNCH_DATE":"2022-05-18","TLE_LINE2":"2 52674  53.2175  30.8446 0001735  48.9898 170.4494 15.19108945  1302","SEMIMAJOR_AXIS":"6886.669","CLASSIFICATION_TYPE":"U","ECCENTRICITY":"0.00017350","MEAN_MOTION_DOT":"-0.00721335","RA_OF_ASC_NODE":"30.8446","MEAN_MOTION_DDOT":"0.0000000000000","REF_FRAME":"TEME","MEAN_ANOMALY":"170.4494","COUNTRY_CODE":"US","ARG_OF_PERICENTER":"48.9898","SITE":"AFETR","PERIOD":"94.792","TIME_SYSTEM":"UTC","BSTAR":"-0.03641800000000","RCS_SIZE":"LARGE","OBJECT_ID":"2022-053U","NORAD_CAT_ID":"52674","INCLINATION":"53.2175","CENTER_NAME":"EARTH","GP_ID":"208001972","REV_AT_EPOCH":"130","DECAY_DATE":null,"APOAPSIS":"509.729","FILE":"3512432","OBJECT_NAME":"STARLINK-3936","MEAN_ELEMENT_THEORY":"SGP4","ELEMENT_SET_NO":"999","MEAN_MOTION":"15.19108945","PERIAPSIS":"507.339","TLE_LINE1":"1 52674U 22053U   22193.91667824 -.00721335  00000-0 -36418-1 0  9992","EPHEMERIS_TYPE":"0","OBJECT_TYPE":"PAYLOAD","EPOCH":"2022-07-12T22:00:00.999936"},{"OBJECT_NAME":"STARLINK-3934","FILE":"3512491","MEAN_ELEMENT_THEORY":"SGP4","ELEMENT_SET_NO":"999","MEAN_MOTION":"15.50890704","PERIAPSIS":"413.070","TLE_LINE1":"1 52675U 22053V   22194.16667824 -.00955971  00000-0 -17722-1 0  9993","EPHEMERIS_TYPE":"0","OBJECT_TYPE":"PAYLOAD","EPOCH":"2022-07-13T04:00:00.999936","INCLINATION":"53.2173","CENTER_NAME":"EARTH","GP_ID":"208003353","REV_AT_EPOCH":"908","DECAY_DATE":null,"APOAPSIS":"415.182","TIME_SYSTEM":"UTC","BSTAR":"-0.01772200000000","RCS_SIZE":"LARGE","OBJECT_ID":"2022-053V","NORAD_CAT_ID":"52675","LAUNCH_DATE":"2022-05-18","TLE_LINE2":"2 52675  53.2173  22.6961 0001555  38.8839 229.7588 15.50890704  9086","SEMIMAJOR_AXIS":"6792.261","CLASSIFICATION_TYPE":"U","ECCENTRICITY":"0.00015550","MEAN_MOTION_DOT":"-0.00955971","RA_OF_ASC_NODE":"22.6961","MEAN_MOTION_DDOT":"0.0000000000000","REF_FRAME":"TEME","MEAN_ANOMALY":"229.7588","COUNTRY_CODE":"US","SITE":"AFETR","ARG_OF_PERICENTER":"38.8839","PERIOD":"92.850"},{"REF_FRAME":"TEME","MEAN_MOTION_DDOT":"0.0000000000000","PERIOD":"94.755","ARG_OF_PERICENTER":"49.7302","SITE":"AFETR","COUNTRY_CODE":"US","MEAN_ANOMALY":"214.9154","CLASSIFICATION_TYPE":"U","SEMIMAJOR_AXIS":"6884.872","TLE_LINE2":"2 52676  53.2177  30.8527 0001658  49.7302 214.9154 15.19703844  1305","LAUNCH_DATE":"2022-05-18","RA_OF_ASC_NODE":"30.8527","MEAN_MOTION_DOT":"-0.00721545","ECCENTRICITY":"0.00016580","NORAD_CAT_ID":"52676","OBJECT_ID":"2022-053W","BSTAR":"-0.03580300000000","TIME_SYSTEM":"UTC","RCS_SIZE":"LARGE","GP_ID":"208001715","APOAPSIS":"507.878","DECAY_DATE":null,"REV_AT_EPOCH":"130","INCLINATION":"53.2177","CENTER_NAME":"EARTH","MEAN_MOTION":"15.19703844","ELEMENT_SET_NO":"999","EPOCH":"2022-07-12T22:00:00.999936","EPHEMERIS_TYPE":"0","TLE_LINE1":"1 52676U 22053W   22193.91667824 -.00721545  00000-0 -35803-1 0  9994","OBJECT_TYPE":"PAYLOAD","PERIAPSIS":"505.595","MEAN_ELEMENT_THEORY":"SGP4","OBJECT_NAME":"STARLINK-4006","FILE":"3512432"},{"PERIAPSIS":"412.869","EPOCH":"2022-07-13T04:00:00.999936","TLE_LINE1":"1 52677U 22053X   22194.16667824 -.00966493  00000-0 -17922-1 0  9998","EPHEMERIS_TYPE":"0","OBJECT_TYPE":"PAYLOAD","ELEMENT_SET_NO":"999","MEAN_MOTION":"15.50908622","MEAN_ELEMENT_THEORY":"SGP4","OBJECT_NAME":"STARLINK-4028","FILE":"3512492","DECAY_DATE":null,"REV_AT_EPOCH":"908","APOAPSIS":"415.279","GP_ID":"208003357","INCLINATION":"53.2173","CENTER_NAME":"EARTH","NORAD_CAT_ID":"52677","OBJECT_ID":"2022-053X","RCS_SIZE":"LARGE","TIME_SYSTEM":"UTC","BSTAR":"-0.01792200000000","COUNTRY_CODE":"US","MEAN_ANOMALY":"235.9833","PERIOD":"92.849","SITE":"AFETR","ARG_OF_PERICENTER":"34.3217","MEAN_MOTION_DDOT":"0.0000000000000","REF_FRAME":"TEME","MEAN_MOTION_DOT":"-0.00966493","ECCENTRICITY":"0.00017740","RA_OF_ASC_NODE":"22.7206","LAUNCH_DATE":"2022-05-18","SEMIMAJOR_AXIS":"6792.209","CLASSIFICATION_TYPE":"U","TLE_LINE2":"2 52677  53.2173  22.7206 0001774  34.3217 235.9833 15.50908622  9086"},{"NORAD_CAT_ID":"52678","OBJECT_ID":"2022-053Y","RCS_SIZE":"LARGE","BSTAR":"-0.01766500000000","TIME_SYSTEM":"UTC","PERIOD":"92.850","ARG_OF_PERICENTER":"37.8851","SITE":"AFETR","COUNTRY_CODE":"US","MEAN_ANOMALY":"229.9260","MEAN_MOTION_DDOT":"0.0000000000000","REF_FRAME":"TEME","RA_OF_ASC_NODE":"22.6942","MEAN_MOTION_DOT":"-0.00952901","ECCENTRICITY":"0.00015650","CLASSIFICATION_TYPE":"U","SEMIMAJOR_AXIS":"6792.284","TLE_LINE2":"2 52678  53.2173  22.6942 0001565  37.8851 229.9260 15.50882814  9084","LAUNCH_DATE":"2022-05-18","EPOCH":"2022-07-13T04:00:00.999936","TLE_LINE1":"1 52678U 22053Y   22194.16667824 -.00952901  00000-0 -17665-1 0  9992","EPHEMERIS_TYPE":"0","OBJECT_TYPE":"PAYLOAD","PERIAPSIS":"413.086","MEAN_MOTION":"15.50882814","ELEMENT_SET_NO":"999","MEAN_ELEMENT_THEORY":"SGP4","FILE":"3512492","OBJECT_NAME":"STARLINK-4074","APOAPSIS":"415.212","DECAY_DATE":null,"REV_AT_EPOCH":"908","GP_ID":"208003865","CENTER_NAME":"EARTH","INCLINATION":"53.2173"},{"RA_OF_ASC_NODE":"23.9565","MEAN_MOTION_DOT":"-0.01060712","ECCENTRICITY":"0.00016570","CLASSIFICATION_TYPE":"U","SEMIMAJOR_AXIS":"6790.362","TLE_LINE2":"2 52679  53.2176  23.9565 0001657  37.0690 278.8054 15.51541253  1309","LAUNCH_DATE":"2022-05-18","PERIOD":"92.811","SITE":"AFETR","ARG_OF_PERICENTER":"37.0690","COUNTRY_CODE":"US","MEAN_ANOMALY":"278.8054","MEAN_MOTION_DDOT":"0.0000000000000","REF_FRAME":"TEME","RCS_SIZE":"LARGE","BSTAR":"-0.01939700000000","TIME_SYSTEM":"UTC","NORAD_CAT_ID":"52679","OBJECT_ID":"2022-053Z","INCLINATION":"53.2176","CENTER_NAME":"EARTH","APOAPSIS":"413.353","DECAY_DATE":null,"REV_AT_EPOCH":"130","GP_ID":"208001820","MEAN_ELEMENT_THEORY":"SGP4","OBJECT_NAME":"STARLINK-4031","FILE":"3512432","EPOCH":"2022-07-12T22:00:00.999936","TLE_LINE1":"1 52679U 22053Z   22193.91667824 -.01060712  00000-0 -19397-1 0  9990","EPHEMERIS_TYPE":"0","OBJECT_TYPE":"PAYLOAD","PERIAPSIS":"411.102","MEAN_MOTION":"15.51541253","ELEMENT_SET_NO":"999"}];
